CCSDS_OMM_VERS = 2.0
CREATION_DATE  = 
ORIGINATOR     = 

OBJECT_NAME    = STARLINK-35810
OBJECT_ID      = 2025-268U
CENTER_NAME    = EARTH
REF_FRAME      = TEME
TIME_SYSTEM    = UTC
MEAN_ELEMENT_THEORY = SGP/SGP4

EPOCH          = 2025-12-08T14:00:01.999872
MEAN_MOTION    = 15.53226016
ECCENTRICITY   = .00013659
INCLINATION    = 43.0005
RA_OF_ASC_NODE = 145.4282
ARG_OF_PERICENTER = 265.0918
MEAN_ANOMALY   = 36.0579

EPHEMERIS_TYPE = 0
CLASSIFICATION_TYPE = U
NORAD_CAT_ID   = 66575
ELEMENT_SET_NO = 999
REV_AT_EPOCH   = 400
BSTAR          = -.30767663E-1
MEAN_MOTION_DOT = -.17668E-1
MEAN_MOTION_DDOT = 0

CCSDS_OMM_VERS = 2.0
CREATION_DATE  = 
ORIGINATOR     = 

OBJECT_NAME    = STARLINK-35814
OBJECT_ID      = 2025-268V
CENTER_NAME    = EARTH
REF_FRAME      = TEME
TIME_SYSTEM    = UTC
MEAN_ELEMENT_THEORY = SGP/SGP4

EPOCH          = 2025-12-08T14:00:01.999872
MEAN_MOTION    = 15.53223946
ECCENTRICITY   = .00012527
INCLINATION    = 43.0004
RA_OF_ASC_NODE = 145.4232
ARG_OF_PERICENTER = 260.0405
MEAN_ANOMALY   = 43.0286

EPHEMERIS_TYPE = 0
CLASSIFICATION_TYPE = U
NORAD_CAT_ID   = 66576
ELEMENT_SET_NO = 999
REV_AT_EPOCH   = 400
BSTAR          = -.30790989E-1
MEAN_MOTION_DOT = -.1767812E-1
MEAN_MOTION_DDOT = 0

CCSDS_OMM_VERS = 2.0
CREATION_DATE  = 
ORIGINATOR     = 

OBJECT_NAME    = STARLINK-35815
OBJECT_ID      = 2025-268W
CENTER_NAME    = EARTH
REF_FRAME      = TEME
TIME_SYSTEM    = UTC
MEAN_ELEMENT_THEORY = SGP/SGP4

EPOCH          = 2025-12-08T14:00:01.999872
MEAN_MOTION    = 15.53225694
ECCENTRICITY   = .0001219
INCLINATION    = 43.0003
RA_OF_ASC_NODE = 145.4182
ARG_OF_PERICENTER = 260.2049
MEAN_ANOMALY   = 44.7813

EPHEMERIS_TYPE = 0
CLASSIFICATION_TYPE = U
NORAD_CAT_ID   = 66577
ELEMENT_SET_NO = 999
REV_AT_EPOCH   = 400
BSTAR          = -.30897955E-1
MEAN_MOTION_DOT = -.1773358E-1
MEAN_MOTION_DDOT = 0

CCSDS_OMM_VERS = 2.0
CREATION_DATE  = 
ORIGINATOR     = 

OBJECT_NAME    = STARLINK-35743
OBJECT_ID      = 2025-268X
CENTER_NAME    = EARTH
REF_FRAME      = TEME
TIME_SYSTEM    = UTC
MEAN_ELEMENT_THEORY = SGP/SGP4

EPOCH          = 2025-12-08T14:00:01.999872
MEAN_MOTION    = 15.53223604
ECCENTRICITY   = .00012184
INCLINATION    = 43.0003
RA_OF_ASC_NODE = 145.4137
ARG_OF_PERICENTER = 263.0581
MEAN_ANOMALY   = 43.8455

EPHEMERIS_TYPE = 0
CLASSIFICATION_TYPE = U
NORAD_CAT_ID   = 66578
ELEMENT_SET_NO = 999
REV_AT_EPOCH   = 400
BSTAR          = -.30808393E-1
MEAN_MOTION_DOT = -.1768663E-1
MEAN_MOTION_DDOT = 0

CCSDS_OMM_VERS = 2.0
CREATION_DATE  = 
ORIGINATOR     = 

OBJECT_NAME    = STARLINK-35868
OBJECT_ID      = 2025-268Y
CENTER_NAME    = EARTH
REF_FRAME      = TEME
TIME_SYSTEM    = UTC
MEAN_ELEMENT_THEORY = SGP/SGP4

EPOCH          = 2025-12-08T14:00:01.999872
MEAN_MOTION    = 15.53229608
ECCENTRICITY   = .00013189
INCLINATION    = 43.0002
RA_OF_ASC_NODE = 145.4088
ARG_OF_PERICENTER = 262.2384
MEAN_ANOMALY   = 46.5782

EPHEMERIS_TYPE = 0
CLASSIFICATION_TYPE = U
NORAD_CAT_ID   = 66579
ELEMENT_SET_NO = 999
REV_AT_EPOCH   = 400
BSTAR          = -.3096866E-1
MEAN_MOTION_DOT = -.1777248E-1
MEAN_MOTION_DDOT = 0

CCSDS_OMM_VERS = 2.0
CREATION_DATE  = 
ORIGINATOR     = 

OBJECT_NAME    = STARLINK-35872
OBJECT_ID      = 2025-268Z
CENTER_NAME    = EARTH
REF_FRAME      = TEME
TIME_SYSTEM    = UTC
MEAN_ELEMENT_THEORY = SGP/SGP4

EPOCH          = 2025-12-08T14:00:01.999872
MEAN_MOTION    = 15.53225005
ECCENTRICITY   = .00012394
INCLINATION    = 43.0002
RA_OF_ASC_NODE = 145.4047
ARG_OF_PERICENTER = 257.0519
MEAN_ANOMALY   = 53.6836

EPHEMERIS_TYPE = 0
CLASSIFICATION_TYPE = U
NORAD_CAT_ID   = 66580
ELEMENT_SET_NO = 999
REV_AT_EPOCH   = 400
BSTAR          = -.30817547E-1
MEAN_MOTION_DOT = -.1769223E-1
MEAN_MOTION_DDOT = 0

CCSDS_OMM_VERS = 2.0
CREATION_DATE  = 
ORIGINATOR     = 

OBJECT_NAME    = STARLINK-35744
OBJECT_ID      = 2025-268AA
CENTER_NAME    = EARTH
REF_FRAME      = TEME
TIME_SYSTEM    = UTC
MEAN_ELEMENT_THEORY = SGP/SGP4

EPOCH          = 2025-12-08T14:00:01.999872
MEAN_MOTION    = 15.53229083
ECCENTRICITY   = .00012879
INCLINATION    = 43.0003
RA_OF_ASC_NODE = 145.3991
ARG_OF_PERICENTER = 259.4085
MEAN_ANOMALY   = 53.2426

EPHEMERIS_TYPE = 0
CLASSIFICATION_TYPE = U
NORAD_CAT_ID   = 66581
ELEMENT_SET_NO = 999
REV_AT_EPOCH   = 395
BSTAR          = -.30939397E-1
MEAN_MOTION_DOT = -.1775707E-1
MEAN_MOTION_DDOT = 0

CCSDS_OMM_VERS = 2.0
CREATION_DATE  = 
ORIGINATOR     = 

OBJECT_NAME    = STARLINK-35746
OBJECT_ID      = 2025-268AB
CENTER_NAME    = EARTH
REF_FRAME      = TEME
TIME_SYSTEM    = UTC
MEAN_ELEMENT_THEORY = SGP/SGP4

EPOCH          = 2025-12-08T14:00:01.999872
MEAN_MOTION    = 15.53224787
ECCENTRICITY   = .00013039
INCLINATION    = 43.0004
RA_OF_ASC_NODE = 145.3942
ARG_OF_PERICENTER = 259.1762
MEAN_ANOMALY   = 55.3945

EPHEMERIS_TYPE = 0
CLASSIFICATION_TYPE = U
NORAD_CAT_ID   = 66582
ELEMENT_SET_NO = 999
REV_AT_EPOCH   = 400
BSTAR          = -.30842396E-1
MEAN_MOTION_DOT = -.1770514E-1
MEAN_MOTION_DDOT = 0

CCSDS_OMM_VERS = 2.0
CREATION_DATE  = 
ORIGINATOR     = 

OBJECT_NAME    = STARLINK-35941
OBJECT_ID      = 2025-268AC
CENTER_NAME    = EARTH
REF_FRAME      = TEME
TIME_SYSTEM    = UTC
MEAN_ELEMENT_THEORY = SGP/SGP4

EPOCH          = 2025-12-08T14:00:01.999872
MEAN_MOTION    = 15.53249730
ECCENTRICITY   = .00017528
INCLINATION    = 43.0007
RA_OF_ASC_NODE = 145.3890
ARG_OF_PERICENTER = 265.2525
MEAN_ANOMALY   = 51.2269

EPHEMERIS_TYPE = 0
CLASSIFICATION_TYPE = U
NORAD_CAT_ID   = 66583
ELEMENT_SET_NO = 999
REV_AT_EPOCH   = 400
BSTAR          = -.31377623E-1
MEAN_MOTION_DOT = -.1799515E-1
MEAN_MOTION_DDOT = 0

CCSDS_OMM_VERS = 2.0
CREATION_DATE  = 
ORIGINATOR     = 

OBJECT_NAME    = STARLINK-35939
OBJECT_ID      = 2025-268AD
CENTER_NAME    = EARTH
REF_FRAME      = TEME
TIME_SYSTEM    = UTC
MEAN_ELEMENT_THEORY = SGP/SGP4

EPOCH          = 2025-12-08T14:00:01.999872
MEAN_MOTION    = 15.53240956
ECCENTRICITY   = .00017109
INCLINATION    = 43.0008
RA_OF_ASC_NODE = 145.3842
ARG_OF_PERICENTER = 265.7285
MEAN_ANOMALY   = 52.6719

EPHEMERIS_TYPE = 0
CLASSIFICATION_TYPE = U
NORAD_CAT_ID   = 66584
ELEMENT_SET_NO = 999
REV_AT_EPOCH   = 400
BSTAR          = -.31118444E-1
MEAN_MOTION_DOT = -.1785769E-1
MEAN_MOTION_DDOT = 0

CCSDS_OMM_VERS = 2.0
CREATION_DATE  = 
ORIGINATOR     = 

OBJECT_NAME    = STARLINK-35963
OBJECT_ID      = 2025-268AE
CENTER_NAME    = EARTH
REF_FRAME      = TEME
TIME_SYSTEM    = UTC
MEAN_ELEMENT_THEORY = SGP/SGP4

EPOCH          = 2025-12-08T14:00:01.999872
MEAN_MOTION    = 15.53231658
ECCENTRICITY   = .00015143
INCLINATION    = 43.0007
RA_OF_ASC_NODE = 145.3803
ARG_OF_PERICENTER = 257.3073
MEAN_ANOMALY   = 63.0083

EPHEMERIS_TYPE = 0
CLASSIFICATION_TYPE = U
NORAD_CAT_ID   = 66585
ELEMENT_SET_NO = 999
REV_AT_EPOCH   = 400
BSTAR          = -.29833737E-1
MEAN_MOTION_DOT = -.1719289E-1
MEAN_MOTION_DDOT = 0

CCSDS_OMM_VERS = 2.0
CREATION_DATE  = 
ORIGINATOR     = 

OBJECT_NAME    = TJS-21
OBJECT_ID      = 2025-269A
CENTER_NAME    = EARTH
REF_FRAME      = TEME
TIME_SYSTEM    = UTC
MEAN_ELEMENT_THEORY = SGP/SGP4

EPOCH          = 2025-12-07T17:43:38.149536
MEAN_MOTION    = 2.00608507
ECCENTRICITY   = .68066654
INCLINATION    = 63.2904
RA_OF_ASC_NODE = 162.9189
ARG_OF_PERICENTER = 269.7757
MEAN_ANOMALY   = 18.6616

EPHEMERIS_TYPE = 0
CLASSIFICATION_TYPE = U
NORAD_CAT_ID   = 66586
ELEMENT_SET_NO = 999
REV_AT_EPOCH   = 33
BSTAR          = .32363049E+1
MEAN_MOTION_DOT = .1641E-4
MEAN_MOTION_DDOT = 0

