STARLINK-35810          
1 66575U 25268U   25342.58335648 -.01766800  00000+0 -30768-1 0  9994
2 66575  43.0005 145.4282 0001365 265.0918  36.0579 15.53226016  4000
STARLINK-35814          
1 66576U 25268V   25342.58335648 -.01767812  00000+0 -30791-1 0  9995
2 66576  43.0004 145.4232 0001252 260.0405  43.0286 15.53223946  4008
STARLINK-35815          
1 66577U 25268W   25342.58335648 -.01773358  00000+0 -30898-1 0  9996
2 66577  43.0003 145.4182 0001219 260.2049  44.7813 15.53225694  4007
STARLINK-35743          
1 66578U 25268X   25342.58335648 -.01768663  00000+0 -30808-1 0  9991
2 66578  43.0003 145.4137 0001218 263.0581  43.8455 15.53223604  4000
STARLINK-35868          
1 66579U 25268Y   25342.58335648 -.01777248  00000+0 -30969-1 0  9999
2 66579  43.0002 145.4088 0001318 262.2384  46.5782 15.53229608  4001
STARLINK-35872          
1 66580U 25268Z   25342.58335648 -.01769223  00000+0 -30818-1 0  9998
2 66580  43.0002 145.4047 0001239 257.0519  53.6836 15.53225005  4008
STARLINK-35744          
1 66581U 25268AA  25342.58335648 -.01775707  00000+0 -30939-1 0  9997
2 66581  43.0003 145.3991 0001287 259.4085  53.2426 15.53229083  3958
STARLINK-35746          
1 66582U 25268AB  25342.58335648 -.01770514  00000+0 -30842-1 0  9992
2 66582  43.0004 145.3942 0001303 259.1762  55.3945 15.53224787  4006
STARLINK-35941          
1 66583U 25268AC  25342.58335648 -.01799515  00000+0 -31378-1 0  9990
2 66583  43.0007 145.3890 0001752 265.2525  51.2269 15.53249730  4004
STARLINK-35939          
1 66584U 25268AD  25342.58335648 -.01785769  00000+0 -31118-1 0  9999
2 66584  43.0008 145.3842 0001710 265.7285  52.6719 15.53240956  4001
STARLINK-35963          
1 66585U 25268AE  25342.58335648 -.01719289  00000+0 -29834-1 0  9996
2 66585  43.0007 145.3803 0001514 257.3073  63.0083 15.53231658  4001
TJS-21                  
1 66586U 25269A   25341.73863599  .00001641  00000+0  32363+1 0  9998
2 66586  63.2904 162.9189 6806665 269.7757  18.6616  2.00608507   335
